{
 "type": "FeatureCollection",
 "features": [
  {
   "type": "Feature",
   "properties": {
    "id": "bk_001",
    "area_m2": 802.6,
    "eave_height_m": 19.7,
    "ridge_height_m": 21.97,
    "mid_height_m": 19.77,
    "roof_relief_m": 2.27,
    "roof_elev_m": 97.54,
    "ground_elev_m": 77.77,
    "roof_std_m": 0.59,
    "world_height_m": 19.77,
    "height_minfilter_m": 19.93,
    "estimator_gap_m": 0.16,
    "confidence": "high",
    "caveat": "",
    "ground_visible_fraction": 0.32,
    "ground_area_m2": 1086.1,
    "veg_fraction_in_roof": 0.0,
    "utm_easting": 681529.47,
    "utm_northing": 1191641.88
   },
   "geometry": {
    "type": "Polygon",
    "coordinates": [
     [
      [
       106.66040089,
       10.77547117
      ],
      [
       106.66040083,
       10.77545987
      ],
      [
       106.66041226,
       10.77545981
      ],
      [
       106.66041232,
       10.77547111
      ],
      [
       106.66040089,
       10.77547117
      ]
     ]
    ]
   }
  },
  {
   "type": "Feature",
   "properties": {
    "id": "bk_002",
    "area_m2": 844.0,
    "eave_height_m": 20.81,
    "ridge_height_m": 22.22,
    "mid_height_m": 21.27,
    "roof_relief_m": 1.41,
    "roof_elev_m": 98.93,
    "ground_elev_m": 77.66,
    "roof_std_m": 0.62,
    "world_height_m": 21.27,
    "height_minfilter_m": 21.6,
    "estimator_gap_m": 0.33,
    "confidence": "high",
    "caveat": "",
    "ground_visible_fraction": 0.315,
    "ground_area_m2": 1074.9,
    "veg_fraction_in_roof": 0.001,
    "utm_easting": 681546.62,
    "utm_northing": 1191611.53
   },
   "geometry": {
    "type": "Polygon",
    "coordinates": [
     [
      [
       106.66059221,
       10.77534583
      ],
      [
       106.66042029,
       10.77525635
      ],
      [
       106.66036992,
       10.77524306
      ],
      [
       106.66036986,
       10.77523176
      ],
      [
       106.66032856,
       10.7752026
      ],
      [
       106.66027129,
       10.7751803
      ],
      [
       106.6602529,
       10.77516232
      ],
      [
       106.66023233,
       10.77516243
      ],
      [
       106.66022998,
       10.77515114
      ],
      [
       106.66012911,
       10.77509744
      ],
      [
       106.66011311,
       10.77509753
      ],
      [
       106.66011074,
       10.77508172
      ],
      [
       106.66014022,
       10.77503862
      ],
      [
       106.66016051,
       10.77498652
      ],
      [
       106.66019249,
       10.77498409
      ],
      [
       106.66025896,
       10.77501538
      ],
      [
       106.66026358,
       10.7750244
      ],
      [
       106.66027958,
       10.77502431
      ],
      [
       106.66027966,
       10.77504013
      ],
      [
       106.66030262,
       10.77505809
      ],
      [
       106.66054335,
       10.77518789
      ],
      [
       106.66056846,
       10.77518323
      ],
      [
       106.6605731,
       10.77519451
      ],
      [
       106.66063957,
       10.77522805
      ],
      [
       106.66065567,
       10.77524605
      ],
      [
       106.66065577,
       10.77526413
      ],
      [
       106.66061048,
       10.77534122
      ],
      [
       106.66059221,
       10.77534583
      ]
     ]
    ]
   }
  },
  {
   "type": "Feature",
   "properties": {
    "id": "bk_003",
    "area_m2": 210.5,
    "eave_height_m": 7.0,
    "ridge_height_m": 7.72,
    "mid_height_m": 7.22,
    "roof_relief_m": 0.71,
    "roof_elev_m": 84.95,
    "ground_elev_m": 77.73,
    "roof_std_m": 0.36,
    "world_height_m": 7.22,
    "height_minfilter_m": 7.7,
    "estimator_gap_m": 0.47,
    "confidence": "high",
    "caveat": "little visible ground nearby",
    "ground_visible_fraction": 0.13,
    "ground_area_m2": 505.2,
    "veg_fraction_in_roof": 0.017,
    "utm_easting": 681452.66,
    "utm_northing": 1191592.72
   },
   "geometry": {
    "type": "Polygon",
    "coordinates": [
     [
      [
       106.65985304,
       10.77519159
      ],
      [
       106.65975672,
       10.77513334
      ],
      [
       106.65971783,
       10.77512903
      ],
      [
       106.65970403,
       10.77511328
      ],
      [
       106.65968343,
       10.77510887
      ],
      [
       106.6596811,
       10.77509984
      ],
      [
       106.65965822,
       10.77509544
      ],
      [
       106.65963293,
       10.77506846
      ],
      [
       106.65960776,
       10.77506407
      ],
      [
       106.65960557,
       10.77508216
      ],
      [
       106.65959187,
       10.7750845
      ],
      [
       106.65958714,
       10.77505514
      ],
      [
       106.65956874,
       10.7750349
      ],
      [
       106.65952976,
       10.7750125
      ],
      [
       106.65950002,
       10.77500814
      ],
      [
       106.65949077,
       10.77499011
      ],
      [
       106.65921794,
       10.77484014
      ],
      [
       106.65916526,
       10.77482234
      ],
      [
       106.65916513,
       10.77479748
      ],
      [
       106.65923845,
       10.77482873
      ],
      [
       106.6593256,
       10.77488251
      ],
      [
       106.65951586,
       10.77497868
      ],
      [
       106.65954112,
       10.77500114
      ],
      [
       106.65956401,
       10.77500554
      ],
      [
       106.65956635,
       10.77501683
      ],
      [
       106.6596007,
       10.77502795
      ],
      [
       106.65979103,
       10.77513767
      ],
      [
       106.65982538,
       10.77514879
      ],
      [
       106.65986669,
       10.77518021
      ],
      [
       106.65986676,
       10.77519151
      ],
      [
       106.65985304,
       10.77519159
      ]
     ]
    ]
   }
  },
  {
   "type": "Feature",
   "properties": {
    "id": "bk_004",
    "area_m2": 1230.6,
    "eave_height_m": 11.46,
    "ridge_height_m": 12.66,
    "mid_height_m": 11.92,
    "roof_relief_m": 1.21,
    "roof_elev_m": 89.59,
    "ground_elev_m": 77.67,
    "roof_std_m": 0.54,
    "world_height_m": 11.92,
    "height_minfilter_m": 12.46,
    "estimator_gap_m": 0.53,
    "confidence": "medium",
    "caveat": "little visible ground nearby",
    "ground_visible_fraction": 0.138,
    "ground_area_m2": 720.8,
    "veg_fraction_in_roof": 0.001,
    "utm_easting": 681444.23,
    "utm_northing": 1191579.08
   },
   "geometry": {
    "type": "Polygon",
    "coordinates": [
     [
      [
       106.65990561,
       10.7751913
      ],
      [
       106.65983904,
       10.77513968
      ],
      [
       106.65979781,
       10.77512408
      ],
      [
       106.65970606,
       10.7750658
      ],
      [
       106.65963274,
       10.77503455
      ],
      [
       106.65956849,
       10.7749897
      ],
      [
       106.65918108,
       10.77478836
      ],
      [
       106.65916958,
       10.77477486
      ],
      [
       106.65913525,
       10.77476826
      ],
      [
       106.65912143,
       10.77474799
      ],
      [
       106.65907335,
       10.77473469
      ],
      [
       106.659071,
       10.7747234
      ],
      [
       106.65904805,
       10.77470544
      ],
      [
       106.65899074,
       10.77467637
      ],
      [
       106.65895416,
       10.7746743
      ],
      [
       106.65894234,
       10.7746043
      ],
      [
       106.65895129,
       10.77456809
      ],
      [
       106.65897413,
       10.77456571
      ],
      [
       106.65904984,
       10.77461503
      ],
      [
       106.65918047,
       10.77467761
      ],
      [
       106.65924013,
       10.77471798
      ],
      [
       106.65927447,
       10.77472909
      ],
      [
       106.65995543,
       10.77510515
      ],
      [
       106.65996009,
       10.77512095
      ],
      [
       106.65993065,
       10.77517083
      ],
      [
       106.65992847,
       10.77519118
      ],
      [
       106.65990561,
       10.7751913
      ]
     ]
    ]
   }
  },
  {
   "type": "Feature",
   "properties": {
    "id": "bk_005",
    "area_m2": 363.6,
    "eave_height_m": 7.32,
    "ridge_height_m": 7.78,
    "mid_height_m": 7.4,
    "roof_relief_m": 0.46,
    "roof_elev_m": 84.89,
    "ground_elev_m": 77.49,
    "roof_std_m": 0.17,
    "world_height_m": 7.4,
    "height_minfilter_m": 7.81,
    "estimator_gap_m": 0.41,
    "confidence": "high",
    "caveat": "little visible ground nearby",
    "ground_visible_fraction": 0.105,
    "ground_area_m2": 525.9,
    "veg_fraction_in_roof": 0.0,
    "utm_easting": 681447.23,
    "utm_northing": 1191571.57
   },
   "geometry": {
    "type": "Polygon",
    "coordinates": [
     [
      [
       106.65996223,
       10.77509381
      ],
      [
       106.65987967,
       10.77504453
      ],
      [
       106.65984073,
       10.77503118
      ],
      [
       106.65972375,
       10.77495722
      ],
      [
       106.65957705,
       10.77488342
      ],
      [
       106.65956096,
       10.77486769
      ],
      [
       106.65945555,
       10.77481853
      ],
      [
       106.65928584,
       10.77471773
      ],
      [
       106.65924233,
       10.77470214
      ],
      [
       106.65919184,
       10.77466625
      ],
      [
       106.65905204,
       10.7745992
      ],
      [
       106.65897406,
       10.77455215
      ],
      [
       106.65897626,
       10.77453632
      ],
      [
       106.65899452,
       10.7745317
      ],
      [
       106.65907475,
       10.77457195
      ],
      [
       106.65911605,
       10.77460111
      ],
      [
       106.6592467,
       10.77466596
      ],
      [
       106.65931553,
       10.77471305
      ],
      [
       106.65939345,
       10.7747488
      ],
      [
       106.65941642,
       10.77476902
      ],
      [
       106.65951267,
       10.7748137
      ],
      [
       106.65953335,
       10.77483393
      ],
      [
       106.65966856,
       10.77489649
      ],
      [
       106.65969382,
       10.77491896
      ],
      [
       106.6597511,
       10.77494352
      ],
      [
       106.65980847,
       10.77498389
      ],
      [
       106.65984052,
       10.77499276
      ],
      [
       106.65990016,
       10.77503086
      ],
      [
       106.65998266,
       10.77506884
      ],
      [
       106.65998049,
       10.7750892
      ],
      [
       106.65996223,
       10.77509381
      ]
     ]
    ]
   }
  },
  {
   "type": "Feature",
   "properties": {
    "id": "bk_006",
    "area_m2": 1254.9,
    "eave_height_m": 11.79,
    "ridge_height_m": 13.08,
    "mid_height_m": 12.24,
    "roof_relief_m": 1.28,
    "roof_elev_m": 89.42,
    "ground_elev_m": 77.19,
    "roof_std_m": 0.56,
    "world_height_m": 12.24,
    "height_minfilter_m": 12.42,
    "estimator_gap_m": 0.18,
    "confidence": "high",
    "caveat": "",
    "ground_visible_fraction": 0.227,
    "ground_area_m2": 1183.2,
    "veg_fraction_in_roof": 0.0,
    "utm_easting": 681452.08,
    "utm_northing": 1191564.97
   },
   "geometry": {
    "type": "Polygon",
    "coordinates": [
     [
      [
       106.65998489,
       10.77505753
      ],
      [
       106.65986336,
       10.77498812
      ],
      [
       106.65979462,
       10.7749591
      ],
      [
       106.65968222,
       10.77488738
      ],
      [
       106.65953783,
       10.77481809
      ],
      [
       106.65951945,
       10.77480011
      ],
      [
       106.6594209,
       10.77475317
      ],
      [
       106.65925348,
       10.77465236
      ],
      [
       106.65912513,
       10.77458976
      ],
      [
       106.65908153,
       10.77455836
      ],
      [
       106.65899903,
       10.77452037
      ],
      [
       106.65899666,
       10.77450457
      ],
      [
       106.65903061,
       10.77444336
      ],
      [
       106.65907179,
       10.77444992
      ],
      [
       106.65913374,
       10.77449253
      ],
      [
       106.65934463,
       10.77459989
      ],
      [
       106.65941803,
       10.77464696
      ],
      [
       106.65945697,
       10.77466031
      ],
      [
       106.65950745,
       10.7746962
      ],
      [
       106.65966102,
       10.77477223
      ],
      [
       106.65975965,
       10.77483498
      ],
      [
       106.65981692,
       10.77485728
      ],
      [
       106.65998433,
       10.77495583
      ],
      [
       106.66003014,
       10.77497366
      ],
      [
       106.66003254,
       10.77499399
      ],
      [
       106.66000313,
       10.77505065
      ],
      [
       106.65998489,
       10.77505753
      ]
     ]
    ]
   }
  },
  {
   "type": "Feature",
   "properties": {
    "id": "bk_007",
    "area_m2": 4632.7,
    "eave_height_m": 6.28,
    "ridge_height_m": 9.53,
    "mid_height_m": 8.37,
    "roof_relief_m": 3.25,
    "roof_elev_m": 85.49,
    "ground_elev_m": 77.13,
    "roof_std_m": 1.51,
    "world_height_m": 8.37,
    "height_minfilter_m": 8.5,
    "estimator_gap_m": 0.13,
    "confidence": "medium",
    "caveat": "multi-level roof, should be split",
    "ground_visible_fraction": 0.356,
    "ground_area_m2": 2915.1,
    "veg_fraction_in_roof": 0.002,
    "utm_easting": 681571.6,
    "utm_northing": 1191537.45
   },
   "geometry": {
    "type": "Polygon",
    "coordinates": [
     [
      [
       106.6607802,
       10.77502841
      ],
      [
       106.66072057,
       10.77499256
      ],
      [
       106.66060601,
       10.77494346
      ],
      [
       106.66055554,
       10.77490982
      ],
      [
       106.66055318,
       10.77489628
      ],
      [
       106.6605187,
       10.77486256
      ],
      [
       106.66050956,
       10.77486261
      ],
      [
       106.66050734,
       10.77487392
      ],
      [
       106.66049134,
       10.77487401
      ],
      [
       106.66043866,
       10.77485621
      ],
      [
       106.66043168,
       10.77483364
      ],
      [
       106.66040182,
       10.77480668
      ],
      [
       106.6603263,
       10.77479126
      ],
      [
       106.66029636,
       10.77475074
      ],
      [
       106.66025064,
       10.77474873
      ],
      [
       106.66018637,
       10.77470161
      ],
      [
       106.66019306,
       10.77466993
      ],
      [
       106.66016567,
       10.77467686
      ],
      [
       106.66011068,
       10.77465455
      ],
      [
       106.66011061,
       10.77464099
      ],
      [
       106.66026008,
       10.77438705
      ],
      [
       106.66024848,
       10.77435547
      ],
      [
       106.6602711,
       10.77431241
      ],
      [
       106.66030733,
       10.77424893
      ],
      [
       106.6603279,
       10.77424882
      ],
      [
       106.66033239,
       10.77423298
      ],
      [
       106.6603506,
       10.77421932
      ],
      [
       106.66044793,
       10.77404476
      ],
      [
       106.6604615,
       10.77401757
      ],
      [
       106.66046136,
       10.77399271
      ],
      [
       106.66047273,
       10.77398135
      ],
      [
       106.66051621,
       10.77399015
      ],
      [
       106.66054836,
       10.7740171
      ],
      [
       106.66055072,
       10.77403065
      ],
      [
       106.66055986,
       10.7740306
      ],
      [
       106.66056208,
       10.77401929
      ],
      [
       106.66058498,
       10.77402595
      ],
      [
       106.66059208,
       10.77407111
      ],
      [
       106.6606219,
       10.77408903
      ],
      [
       106.66065396,
       10.77410016
      ],
      [
       106.66070191,
       10.77409087
      ],
      [
       106.66116734,
       10.77434603
      ],
      [
       106.66116753,
       10.77438219
      ],
      [
       106.66115383,
       10.77438452
      ],
      [
       106.66112664,
       10.77442761
      ],
      [
       106.66111064,
       10.7744277
      ],
      [
       106.66109911,
       10.77440968
      ],
      [
       106.66107164,
       10.77440304
      ],
      [
       106.6610693,
       10.77439176
      ],
      [
       106.66105788,
       10.77439408
      ],
      [
       106.66106023,
       10.77440537
      ],
      [
       106.66107623,
       10.77440528
      ],
      [
       106.66107628,
       10.77441432
      ],
      [
       106.66109922,
       10.77443002
      ],
      [
       106.66111751,
       10.77442992
      ],
      [
       106.66111761,
       10.774448
      ],
      [
       106.66109253,
       10.77445944
      ],
      [
       106.66109734,
       10.77450461
      ],
      [
       106.66107451,
       10.77450926
      ],
      [
       106.66104933,
       10.77450261
      ],
      [
       106.66103794,
       10.77450945
      ],
      [
       106.66103803,
       10.77452527
      ],
      [
       106.66102203,
       10.77452536
      ],
      [
       106.66093257,
       10.77446933
      ],
      [
       106.66075149,
       10.77437764
      ],
      [
       106.66050614,
       10.77423882
      ],
      [
       106.66049244,
       10.77424116
      ],
      [
       106.6604766,
       10.77427063
      ],
      [
       106.66043773,
       10.77426857
      ],
      [
       106.66043762,
       10.77424823
      ],
      [
       106.66046709,
       10.77420287
      ],
      [
       106.66046704,
       10.77419383
      ],
      [
       106.66045559,
       10.77419163
      ],
      [
       106.66044197,
       10.77420753
      ],
      [
       106.66040805,
       10.77427551
      ],
      [
       106.66041275,
       10.77429809
      ],
      [
       106.66038775,
       10.77432534
      ],
      [
       106.66034702,
       10.77440015
      ],
      [
       106.66031519,
       10.77443196
      ],
      [
       106.66028359,
       10.77450445
      ],
      [
       106.6602973,
       10.77450438
      ],
      [
       106.66032443,
       10.77444999
      ],
      [
       106.66034502,
       10.77445214
      ],
      [
       106.6603634,
       10.77447012
      ],
      [
       106.66036348,
       10.77448368
      ],
      [
       106.66034759,
       10.77450411
      ],
      [
       106.66034771,
       10.77452671
      ],
      [
       106.66045091,
       10.77458718
      ],
      [
       106.66048751,
       10.77459377
      ],
      [
       106.66051282,
       10.77462301
      ],
      [
       106.66054714,
       10.77462961
      ],
      [
       106.66057698,
       10.77465205
      ],
      [
       106.66059527,
       10.77465195
      ],
      [
       106.66063667,
       10.77469919
      ],
      [
       106.66065954,
       10.77470133
      ],
      [
       106.66066189,
       10.77471262
      ],
      [
       106.66069396,
       10.77472601
      ],
      [
       106.66072594,
       10.77472132
      ],
      [
       106.66074436,
       10.77474608
      ],
      [
       106.66081079,
       10.77477059
      ],
      [
       106.66082002,
       10.77478636
      ],
      [
       106.66086582,
       10.77480193
      ],
      [
       106.66089567,
       10.77482664
      ],
      [
       106.6608889,
       10.77484249
      ],
      [
       106.66089362,
       10.77486959
      ],
      [
       106.66088449,
       10.7748719
      ],
      [
       106.66088458,
       10.77488772
      ],
      [
       106.66085263,
       10.77489693
      ],
      [
       106.66084141,
       10.77493541
      ],
      [
       106.66082543,
       10.77494002
      ],
      [
       106.66082796,
       10.77498521
      ],
      [
       106.6608143,
       10.77499432
      ],
      [
       106.66080306,
       10.77502828
      ],
      [
       106.6607802,
       10.77502841
      ]
     ]
    ]
   }
  },
  {
   "type": "Feature",
   "properties": {
    "id": "bk_008",
    "area_m2": 1336.8,
    "eave_height_m": 4.24,
    "ridge_height_m": 7.68,
    "mid_height_m": 5.02,
    "roof_relief_m": 3.43,
    "roof_elev_m": 82.15,
    "ground_elev_m": 77.13,
    "roof_std_m": 1.35,
    "world_height_m": 5.02,
    "height_minfilter_m": 5.08,
    "estimator_gap_m": 0.06,
    "confidence": "medium",
    "caveat": "little visible ground nearby; multi-level roof, should be split",
    "ground_visible_fraction": 0.177,
    "ground_area_m2": 1235.9,
    "veg_fraction_in_roof": 0.019,
    "utm_easting": 681419.47,
    "utm_northing": 1191546.73
   },
   "geometry": {
    "type": "Polygon",
    "coordinates": [
     [
      [
       106.66003012,
       10.77496914
      ],
      [
       106.66002778,
       10.77496011
      ],
      [
       106.65993834,
       10.77490635
      ],
      [
       106.65976185,
       10.77481915
      ],
      [
       106.6596678,
       10.77475863
      ],
      [
       106.65961053,
       10.77473633
      ],
      [
       106.6595738,
       10.77470715
      ],
      [
       106.65952112,
       10.77468709
      ],
      [
       106.65947521,
       10.77465343
      ],
      [
       106.65941106,
       10.77462666
      ],
      [
       106.65933766,
       10.77457959
      ],
      [
       106.65913136,
       10.77447446
      ],
      [
       106.65908316,
       10.77443856
      ],
      [
       106.65904881,
       10.77442744
      ],
      [
       106.65904866,
       10.77440032
      ],
      [
       106.65902354,
       10.77440498
      ],
      [
       106.65902131,
       10.77441403
      ],
      [
       106.65899388,
       10.77441418
      ],
      [
       106.65897814,
       10.77446172
      ],
      [
       106.65894858,
       10.77449126
      ],
      [
       106.65893729,
       10.77451618
      ],
      [
       106.65893519,
       10.7745501
      ],
      [
       106.65886441,
       10.77456404
      ],
      [
       106.65886221,
       10.77457987
      ],
      [
       106.6588508,
       10.77458445
      ],
      [
       106.65884415,
       10.77462291
      ],
      [
       106.6588146,
       10.77465245
      ],
      [
       106.65878033,
       10.77465489
      ],
      [
       106.65875078,
       10.77468669
      ],
      [
       106.65873018,
       10.77468002
      ],
      [
       106.6586865,
       10.77463506
      ],
      [
       106.65868644,
       10.77462375
      ],
      [
       106.65871151,
       10.77461006
      ],
      [
       106.65872282,
       10.77458966
      ],
      [
       106.65869751,
       10.77455815
      ],
      [
       106.65865631,
       10.77454933
      ],
      [
       106.65864936,
       10.77453129
      ],
      [
       106.65867218,
       10.77452438
      ],
      [
       106.65867439,
       10.77451081
      ],
      [
       106.65866294,
       10.77450635
      ],
      [
       106.65866286,
       10.77449279
      ],
      [
       106.65867886,
       10.77449271
      ],
      [
       106.65874304,
       10.77452401
      ],
      [
       106.6587409,
       10.77455114
      ],
      [
       106.65875004,
       10.77455109
      ],
      [
       106.65878412,
       10.77451248
      ],
      [
       106.65882078,
       10.77452811
      ],
      [
       106.65886882,
       10.77453463
      ],
      [
       106.65888241,
       10.77451196
      ],
      [
       106.65886862,
       10.77449847
      ],
      [
       106.65885032,
       10.77449631
      ],
      [
       106.65883648,
       10.77447378
      ],
      [
       106.65881357,
       10.77446486
      ],
      [
       106.6588112,
       10.77444906
      ],
      [
       106.65887238,
       10.77435154
      ],
      [
       106.65889047,
       10.77431528
      ],
      [
       106.65889036,
       10.77429494
      ],
      [
       106.65890635,
       10.7742926
      ],
      [
       106.65890194,
       10.774322
      ],
      [
       106.65892262,
       10.77434223
      ],
      [
       106.65895921,
       10.7743443
      ],
      [
       106.65896615,
       10.77436008
      ],
      [
       106.65898446,
       10.7743645
      ],
      [
       106.6589868,
       10.77437353
      ],
      [
       106.65900733,
       10.77436664
      ],
      [
       106.65900951,
       10.77434629
      ],
      [
       106.65902094,
       10.77434623
      ],
      [
       106.65902788,
       10.77436201
      ],
      [
       106.65904845,
       10.7743619
      ],
      [
       106.65908284,
       10.7743798
      ],
      [
       106.6591425,
       10.77442242
      ],
      [
       106.65916312,
       10.77443135
      ],
      [
       106.65920883,
       10.77442885
      ],
      [
       106.65920665,
       10.7744492
      ],
      [
       106.65923649,
       10.77447164
      ],
      [
       106.65940843,
       10.77456339
      ],
      [
       106.65946108,
       10.77457666
      ],
      [
       106.65947032,
       10.7745947
      ],
      [
       106.65951615,
       10.77461479
      ],
      [
       106.65953222,
       10.77462827
      ],
      [
       106.6595255,
       10.77465316
      ],
      [
       106.65956204,
       10.77464619
      ],
      [
       106.65959191,
       10.77467541
      ],
      [
       106.65961248,
       10.7746753
      ],
      [
       106.65964,
       10.77469097
      ],
      [
       106.65964006,
       10.77470227
      ],
      [
       106.65962865,
       10.7747046
      ],
      [
       106.65963099,
       10.77471588
      ],
      [
       106.65964241,
       10.77471356
      ],
      [
       106.65964232,
       10.77469774
      ],
      [
       106.65965375,
       10.77469768
      ],
      [
       106.66006186,
       10.77492151
      ],
      [
       106.66006423,
       10.77493732
      ],
      [
       106.6600551,
       10.77493963
      ],
      [
       106.66004839,
       10.77496678
      ],
      [
       106.66003012,
       10.77496914
      ]
     ]
    ]
   }
  },
  {
   "type": "Feature",
   "properties": {
    "id": "bk_009",
    "area_m2": 126.3,
    "eave_height_m": 4.62,
    "ridge_height_m": 8.15,
    "mid_height_m": 5.97,
    "roof_relief_m": 3.54,
    "roof_elev_m": 83.15,
    "ground_elev_m": 77.18,
    "roof_std_m": 1.55,
    "world_height_m": 5.97,
    "height_minfilter_m": 6.11,
    "estimator_gap_m": 0.13,
    "confidence": "medium",
    "caveat": "multi-level roof, should be split",
    "ground_visible_fraction": 0.366,
    "ground_area_m2": 675.1,
    "veg_fraction_in_roof": 0.001,
    "utm_easting": 681518.23,
    "utm_northing": 1191572.23
   },
   "geometry": {
    "type": "Polygon",
    "coordinates": [
     [
      [
       106.66013939,
       10.77488719
      ],
      [
       106.66013242,
       10.77486689
      ],
      [
       106.66010949,
       10.77485345
      ],
      [
       106.6600912,
       10.77485355
      ],
      [
       106.66005906,
       10.77482886
      ],
      [
       106.66007261,
       10.77479714
      ],
      [
       106.66007468,
       10.77475871
      ],
      [
       106.66011122,
       10.77475173
      ],
      [
       106.66018917,
       10.77479426
      ],
      [
       106.66018924,
       10.77480782
      ],
      [
       106.66017107,
       10.77482826
      ],
      [
       106.66017117,
       10.77484634
      ],
      [
       106.66015975,
       10.77484866
      ],
      [
       106.66015764,
       10.77488031
      ],
      [
       106.66013939,
       10.77488719
      ]
     ]
    ]
   }
  },
  {
   "type": "Feature",
   "properties": {
    "id": "bk_010",
    "area_m2": 267.9,
    "eave_height_m": 5.13,
    "ridge_height_m": 6.96,
    "mid_height_m": 5.73,
    "roof_relief_m": 1.83,
    "roof_elev_m": 82.97,
    "ground_elev_m": 77.25,
    "roof_std_m": 0.73,
    "world_height_m": 5.73,
    "height_minfilter_m": 6.15,
    "estimator_gap_m": 0.42,
    "confidence": "high",
    "caveat": "",
    "ground_visible_fraction": 0.26,
    "ground_area_m2": 647.6,
    "veg_fraction_in_roof": 0.002,
    "utm_easting": 681565.44,
    "utm_northing": 1191526.16
   },
   "geometry": {
    "type": "Polygon",
    "coordinates": [
     [
      [
       106.66067214,
       10.77449785
      ],
      [
       106.66066505,
       10.77445495
      ],
      [
       106.66063748,
       10.77443023
      ],
      [
       106.66058258,
       10.77442149
      ],
      [
       106.66055975,
       10.77442839
      ],
      [
       106.66054157,
       10.77444657
      ],
      [
       106.66052785,
       10.77444664
      ],
      [
       106.66049339,
       10.77441518
      ],
      [
       106.6604614,
       10.77441762
      ],
      [
       106.66045231,
       10.77442671
      ],
      [
       106.66040653,
       10.77441565
      ],
      [
       106.66040183,
       10.77439081
      ],
      [
       106.66041783,
       10.77439073
      ],
      [
       106.66045425,
       10.77436341
      ],
      [
       106.66046557,
       10.77434301
      ],
      [
       106.66046308,
       10.77430686
      ],
      [
       106.6604905,
       10.77430445
      ],
      [
       106.66056157,
       10.77434249
      ],
      [
       106.66056623,
       10.77435829
      ],
      [
       106.66059367,
       10.7743604
      ],
      [
       106.6607129,
       10.77442757
      ],
      [
       106.66070622,
       10.77445925
      ],
      [
       106.66068357,
       10.77449779
      ],
      [
       106.66067214,
       10.77449785
      ]
     ]
    ]
   }
  },
  {
   "type": "Feature",
   "properties": {
    "id": "bk_011",
    "area_m2": 2820.3,
    "eave_height_m": 5.26,
    "ridge_height_m": 8.3,
    "mid_height_m": 5.91,
    "roof_relief_m": 3.05,
    "roof_elev_m": 82.82,
    "ground_elev_m": 76.91,
    "roof_std_m": 1.33,
    "world_height_m": 5.91,
    "height_minfilter_m": 5.92,
    "estimator_gap_m": 0.01,
    "confidence": "medium",
    "caveat": "multi-level roof, should be split",
    "ground_visible_fraction": 0.281,
    "ground_area_m2": 1699.7,
    "veg_fraction_in_roof": 0.002,
    "utm_easting": 681380.38,
    "utm_northing": 1191497.37
   },
   "geometry": {
    "type": "Polygon",
    "coordinates": [
     [
      [
       106.65872671,
       10.77446533
      ],
      [
       106.65861665,
       10.77440263
      ],
      [
       106.65859151,
       10.77440277
      ],
      [
       106.658541,
       10.77436236
      ],
      [
       106.65855669,
       10.77430577
      ],
      [
       106.6585314,
       10.77427878
      ],
      [
       106.65851747,
       10.77424043
      ],
      [
       106.65848765,
       10.77422025
      ],
      [
       106.65848758,
       10.77420895
      ],
      [
       106.65854434,
       10.77413858
      ],
      [
       106.65869368,
       10.77385979
      ],
      [
       106.65873677,
       10.77379627
      ],
      [
       106.65874574,
       10.77376458
      ],
      [
       106.6588053,
       10.77378912
      ],
      [
       106.65882337,
       10.77374834
      ],
      [
       106.65884159,
       10.77373695
      ],
      [
       106.65884374,
       10.77371207
      ],
      [
       106.65889185,
       10.77373216
      ],
      [
       106.65889191,
       10.77374346
      ],
      [
       106.65888048,
       10.77374352
      ],
      [
       106.65886231,
       10.77376396
      ],
      [
       106.65886243,
       10.77378656
      ],
      [
       106.65887164,
       10.77379781
      ],
      [
       106.65886497,
       10.77383175
      ],
      [
       106.65885129,
       10.7738386
      ],
      [
       106.65885135,
       10.7738499
      ],
      [
       106.65881047,
       10.77389758
      ],
      [
       106.65879017,
       10.77394742
      ],
      [
       106.65875362,
       10.77395213
      ],
      [
       106.65872859,
       10.77397261
      ],
      [
       106.65870594,
       10.77401115
      ],
      [
       106.65871305,
       10.77405632
      ],
      [
       106.65875431,
       10.7740787
      ],
      [
       106.65876346,
       10.77407865
      ],
      [
       106.65876566,
       10.77406281
      ],
      [
       106.658793,
       10.77404685
      ],
      [
       106.65883157,
       10.77399466
      ],
      [
       106.65884529,
       10.77399458
      ],
      [
       106.65899431,
       10.77407515
      ],
      [
       106.65899899,
       10.77409547
      ],
      [
       106.65902642,
       10.77409532
      ],
      [
       106.65915483,
       10.77416922
      ],
      [
       106.65917997,
       10.77416908
      ],
      [
       106.65919585,
       10.7741464
      ],
      [
       106.65919571,
       10.77412154
      ],
      [
       106.65918883,
       10.77411705
      ],
      [
       106.65919328,
       10.77409443
      ],
      [
       106.65916589,
       10.77410135
      ],
      [
       106.65914524,
       10.7740879
      ],
      [
       106.65914282,
       10.77406306
      ],
      [
       106.65913139,
       10.77406312
      ],
      [
       106.65913147,
       10.77407668
      ],
      [
       106.65912004,
       10.77407674
      ],
      [
       106.65911312,
       10.77406547
      ],
      [
       106.65909481,
       10.77406105
      ],
      [
       106.65909474,
       10.77404975
      ],
      [
       106.65919235,
       10.77392492
      ],
      [
       106.65919453,
       10.77390457
      ],
      [
       106.65930453,
       10.77395596
      ],
      [
       106.65930459,
       10.77396726
      ],
      [
       106.65928186,
       10.77398999
      ],
      [
       106.65925952,
       10.77408503
      ],
      [
       106.65924587,
       10.77409641
      ],
      [
       106.65923014,
       10.77414621
      ],
      [
       106.65921642,
       10.77414629
      ],
      [
       106.65920058,
       10.77417575
      ],
      [
       106.65920525,
       10.77419381
      ],
      [
       106.65926486,
       10.77422513
      ],
      [
       106.65926953,
       10.77424319
      ],
      [
       106.65925583,
       10.77424552
      ],
      [
       106.65923081,
       10.77426826
      ],
      [
       106.65924021,
       10.77431567
      ],
      [
       106.65921051,
       10.77431809
      ],
      [
       106.659181,
       10.77435667
      ],
      [
       106.65916729,
       10.77435674
      ],
      [
       106.65909392,
       10.77431645
      ],
      [
       106.65906418,
       10.77431209
      ],
      [
       106.6590389,
       10.77428737
      ],
      [
       106.65900689,
       10.77428528
      ],
      [
       106.65899538,
       10.77427178
      ],
      [
       106.65898395,
       10.77427184
      ],
      [
       106.65898161,
       10.77426055
      ],
      [
       106.65894501,
       10.77425623
      ],
      [
       106.65893108,
       10.77421788
      ],
      [
       106.65890361,
       10.77420899
      ],
      [
       106.65887834,
       10.77418652
      ],
      [
       106.65883257,
       10.77417772
      ],
      [
       106.65882775,
       10.77413255
      ],
      [
       106.65875001,
       10.77412844
      ],
      [
       106.65872284,
       10.77417605
      ],
      [
       106.65872296,
       10.77419639
      ],
      [
       106.65874584,
       10.77420079
      ],
      [
       106.65876655,
       10.77422554
      ],
      [
       106.65882363,
       10.77421393
      ],
      [
       106.65884201,
       10.77423192
      ],
      [
       106.65885143,
       10.77428159
      ],
      [
       106.65882641,
       10.77430432
      ],
      [
       106.65873814,
       10.77446527
      ],
      [
       106.65872671,
       10.77446533
      ]
     ]
    ]
   }
  },
  {
   "type": "Feature",
   "properties": {
    "id": "bk_012",
    "area_m2": 1161.9,
    "eave_height_m": 4.35,
    "ridge_height_m": 5.17,
    "mid_height_m": 4.72,
    "roof_relief_m": 0.83,
    "roof_elev_m": 81.86,
    "ground_elev_m": 77.13,
    "roof_std_m": 0.54,
    "world_height_m": 4.72,
    "height_minfilter_m": 4.96,
    "estimator_gap_m": 0.24,
    "confidence": "high",
    "caveat": "little visible ground nearby",
    "ground_visible_fraction": 0.143,
    "ground_area_m2": 534.0,
    "veg_fraction_in_roof": 0.009,
    "utm_easting": 681618.64,
    "utm_northing": 1191493.81
   },
   "geometry": {
    "type": "Polygon",
    "coordinates": [
     [
      [
       106.66112117,
       10.77426491
      ],
      [
       106.66108678,
       10.77424475
      ],
      [
       106.66106162,
       10.77424263
      ],
      [
       106.66098131,
       10.77418656
      ],
      [
       106.66077728,
       10.77407916
      ],
      [
       106.66076787,
       10.77402949
      ],
      [
       106.66075644,
       10.77402955
      ],
      [
       106.66075654,
       10.77404763
      ],
      [
       106.66073824,
       10.77404547
      ],
      [
       106.66074042,
       10.77402738
      ],
      [
       106.66075185,
       10.77402731
      ],
      [
       106.66075179,
       10.77401601
      ],
      [
       106.66071501,
       10.77397779
      ],
      [
       106.66070803,
       10.77395522
      ],
      [
       106.66069426,
       10.77394626
      ],
      [
       106.66069419,
       10.7739327
      ],
      [
       106.66071474,
       10.77392807
      ],
      [
       106.66073765,
       10.77393924
      ],
      [
       106.6607719,
       10.77393228
      ],
      [
       106.66079711,
       10.77394345
      ],
      [
       106.66079722,
       10.77396379
      ],
      [
       106.66081105,
       10.77398405
      ],
      [
       106.66087746,
       10.7740063
      ],
      [
       106.66089131,
       10.77403109
      ],
      [
       106.66091197,
       10.7740468
      ],
      [
       106.66095537,
       10.77404204
      ],
      [
       106.66096917,
       10.77405779
      ],
      [
       106.66100114,
       10.77405084
      ],
      [
       106.66100329,
       10.77402597
      ],
      [
       106.66102836,
       10.77401227
      ],
      [
       106.66105774,
       10.77395109
      ],
      [
       106.66106917,
       10.77395103
      ],
      [
       106.66127093,
       10.77406295
      ],
      [
       106.66128251,
       10.77409001
      ],
      [
       106.66126436,
       10.77411497
      ],
      [
       106.66126448,
       10.77413757
      ],
      [
       106.66127601,
       10.77415559
      ],
      [
       106.66127609,
       10.77416915
      ],
      [
       106.66126471,
       10.77417826
      ],
      [
       106.66126715,
       10.77420762
      ],
      [
       106.6612261,
       10.77422367
      ],
      [
       106.66121482,
       10.77425085
      ],
      [
       106.66115079,
       10.77424667
      ],
      [
       106.6611326,
       10.77426485
      ],
      [
       106.66112117,
       10.77426491
      ]
     ]
    ]
   }
  },
  {
   "type": "Feature",
   "properties": {
    "id": "bk_013",
    "area_m2": 256.0,
    "eave_height_m": 7.76,
    "ridge_height_m": 8.73,
    "mid_height_m": 8.09,
    "roof_relief_m": 0.97,
    "roof_elev_m": 84.88,
    "ground_elev_m": 76.79,
    "roof_std_m": 0.4,
    "world_height_m": 8.09,
    "height_minfilter_m": 8.22,
    "estimator_gap_m": 0.13,
    "confidence": "high",
    "caveat": "",
    "ground_visible_fraction": 0.384,
    "ground_area_m2": 807.8,
    "veg_fraction_in_roof": 0.0,
    "utm_easting": 681433.68,
    "utm_northing": 1191493.55
   },
   "geometry": {
    "type": "Polygon",
    "coordinates": [
     [
      [
       106.65932864,
       10.77418411
      ],
      [
       106.65924845,
       10.77415064
      ],
      [
       106.65926405,
       10.77407823
      ],
      [
       106.65927318,
       10.77407592
      ],
      [
       106.65928446,
       10.77404874
      ],
      [
       106.65930959,
       10.77404634
      ],
      [
       106.65934835,
       10.77402805
      ],
      [
       106.65945828,
       10.77406589
      ],
      [
       106.65944936,
       10.77410662
      ],
      [
       106.65943111,
       10.77411349
      ],
      [
       106.65937199,
       10.77417032
      ],
      [
       106.65934921,
       10.774184
      ],
      [
       106.65932864,
       10.77418411
      ]
     ]
    ]
   }
  },
  {
   "type": "Feature",
   "properties": {
    "id": "bk_014",
    "area_m2": 634.4,
    "eave_height_m": 11.65,
    "ridge_height_m": 12.29,
    "mid_height_m": 11.78,
    "roof_relief_m": 0.65,
    "roof_elev_m": 88.79,
    "ground_elev_m": 77.02,
    "roof_std_m": 0.25,
    "world_height_m": 11.78,
    "height_minfilter_m": 12.16,
    "estimator_gap_m": 0.39,
    "confidence": "high",
    "caveat": "little visible ground nearby",
    "ground_visible_fraction": 0.154,
    "ground_area_m2": 537.8,
    "veg_fraction_in_roof": 0.008,
    "utm_easting": 681620.9,
    "utm_northing": 1191469.45
   },
   "geometry": {
    "type": "Polygon",
    "coordinates": [
     [
      [
       106.66128922,
       10.77406286
      ],
      [
       106.66126395,
       10.77404039
      ],
      [
       106.66087877,
       10.77382774
      ],
      [
       106.66082376,
       10.77380091
      ],
      [
       106.6607757,
       10.77378987
      ],
      [
       106.6607756,
       10.77377179
      ],
      [
       106.66081407,
       10.77370152
      ],
      [
       106.66082777,
       10.77369919
      ],
      [
       106.66086678,
       10.7737261
      ],
      [
       106.66089422,
       10.77372821
      ],
      [
       106.6608989,
       10.77374853
      ],
      [
       106.6609401,
       10.77375735
      ],
      [
       106.66100432,
       10.77379769
      ],
      [
       106.6610363,
       10.773793
      ],
      [
       106.66103417,
       10.77382239
      ],
      [
       106.6610458,
       10.77385849
      ],
      [
       106.66110748,
       10.77385138
      ],
      [
       106.66135279,
       10.77398341
      ],
      [
       106.66135286,
       10.77399697
      ],
      [
       106.66132999,
       10.77399483
      ],
      [
       106.66131633,
       10.77400395
      ],
      [
       106.66130272,
       10.77402436
      ],
      [
       106.66130065,
       10.7740628
      ],
      [
       106.66128922,
       10.77406286
      ]
     ]
    ]
   }
  },
  {
   "type": "Feature",
   "properties": {
    "id": "bk_015",
    "area_m2": 348.1,
    "eave_height_m": 3.0,
    "ridge_height_m": 4.31,
    "mid_height_m": 3.12,
    "roof_relief_m": 1.31,
    "roof_elev_m": 79.79,
    "ground_elev_m": 76.66,
    "roof_std_m": 0.52,
    "world_height_m": 3.12,
    "height_minfilter_m": 3.29,
    "estimator_gap_m": 0.16,
    "confidence": "high",
    "caveat": "little visible ground nearby",
    "ground_visible_fraction": 0.098,
    "ground_area_m2": 309.0,
    "veg_fraction_in_roof": 0.007,
    "utm_easting": 681572.55,
    "utm_northing": 1191455.81
   },
   "geometry": {
    "type": "Polygon",
    "coordinates": [
     [
      [
       106.6605299,
       10.77398556
      ],
      [
       106.6605342,
       10.77393581
      ],
      [
       106.66052717,
       10.77390421
      ],
      [
       106.66055222,
       10.77388826
      ],
      [
       106.66057024,
       10.77383844
      ],
      [
       106.66055178,
       10.77380689
      ],
      [
       106.66051518,
       10.77380257
      ],
      [
       106.66048079,
       10.77378467
      ],
      [
       106.66047832,
       10.77375078
      ],
      [
       106.66050796,
       10.77373706
      ],
      [
       106.66051467,
       10.7737099
      ],
      [
       106.66052839,
       10.77370983
      ],
      [
       106.660588,
       10.77374341
      ],
      [
       106.6606223,
       10.77374549
      ],
      [
       106.66066991,
       10.77367291
      ],
      [
       106.66068105,
       10.77362087
      ],
      [
       106.66069705,
       10.77362078
      ],
      [
       106.66071069,
       10.77360715
      ],
      [
       106.66071736,
       10.77357321
      ],
      [
       106.66073556,
       10.77355729
      ],
      [
       106.66073547,
       10.77354147
      ],
      [
       106.66074457,
       10.77353238
      ],
      [
       106.66076974,
       10.77353677
      ],
      [
       106.66078124,
       10.77355027
      ],
      [
       106.66078133,
       10.77356609
      ],
      [
       106.66076305,
       10.77356844
      ],
      [
       106.66072672,
       10.77361158
      ],
      [
       106.66072707,
       10.77367712
      ],
      [
       106.66071565,
       10.77367719
      ],
      [
       106.66069296,
       10.77370895
      ],
      [
       106.66068402,
       10.77374516
      ],
      [
       106.66066353,
       10.77376109
      ],
      [
       106.66066136,
       10.77378144
      ],
      [
       106.66064541,
       10.77379057
      ],
      [
       106.66064549,
       10.77380639
      ],
      [
       106.66061809,
       10.77381106
      ],
      [
       106.66060673,
       10.77382468
      ],
      [
       106.66059329,
       10.77387447
      ],
      [
       106.66059576,
       10.77390836
      ],
      [
       106.66058445,
       10.77392877
      ],
      [
       106.66055939,
       10.77394472
      ],
      [
       106.66054133,
       10.7739855
      ],
      [
       106.6605299,
       10.77398556
      ]
     ]
    ]
   }
  },
  {
   "type": "Feature",
   "properties": {
    "id": "bk_016",
    "area_m2": 758.3,
    "eave_height_m": 12.79,
    "ridge_height_m": 13.39,
    "mid_height_m": 13.05,
    "roof_relief_m": 0.59,
    "roof_elev_m": 89.82,
    "ground_elev_m": 76.78,
    "roof_std_m": 0.28,
    "world_height_m": 13.05,
    "height_minfilter_m": 13.23,
    "estimator_gap_m": 0.18,
    "confidence": "high",
    "caveat": "",
    "ground_visible_fraction": 0.276,
    "ground_area_m2": 1031.8,
    "veg_fraction_in_roof": 0.0,
    "utm_easting": 681410.37,
    "utm_northing": 1191458.98
   },
   "geometry": {
    "type": "Polygon",
    "coordinates": [
     [
      [
       106.65939843,
       10.77398936
      ],
      [
       106.65911414,
       10.77383493
      ],
      [
       106.65908895,
       10.77382603
      ],
      [
       106.65906613,
       10.77383293
      ],
      [
       106.65906602,
       10.77381259
      ],
      [
       106.65904766,
       10.77379913
      ],
      [
       106.65887799,
       10.77370511
      ],
      [
       106.65882991,
       10.77369181
      ],
      [
       106.65881598,
       10.7736512
      ],
      [
       106.65883419,
       10.77363754
      ],
      [
       106.65885221,
       10.77358998
      ],
      [
       106.65886364,
       10.77358992
      ],
      [
       106.65890038,
       10.7736191
      ],
      [
       106.65893014,
       10.77362799
      ],
      [
       106.65930848,
       10.77384293
      ],
      [
       106.65942539,
       10.77390333
      ],
      [
       106.65945744,
       10.7739122
      ],
      [
       106.65945751,
       10.77392576
      ],
      [
       106.65941443,
       10.77398928
      ],
      [
       106.65939843,
       10.77398936
      ]
     ]
    ]
   }
  },
  {
   "type": "Feature",
   "properties": {
    "id": "bk_017",
    "area_m2": 488.5,
    "eave_height_m": 11.8,
    "ridge_height_m": 12.28,
    "mid_height_m": 12.07,
    "roof_relief_m": 0.48,
    "roof_elev_m": 88.52,
    "ground_elev_m": 76.44,
    "roof_std_m": 0.26,
    "world_height_m": 12.07,
    "height_minfilter_m": 12.15,
    "estimator_gap_m": 0.08,
    "confidence": "high",
    "caveat": "little visible ground nearby",
    "ground_visible_fraction": 0.194,
    "ground_area_m2": 555.9,
    "veg_fraction_in_roof": 0.007,
    "utm_easting": 681542.83,
    "utm_northing": 1191457.76
   },
   "geometry": {
    "type": "Polygon",
    "coordinates": [
     [
      [
       106.66049061,
       10.77390667
      ],
      [
       106.66039205,
       10.77385747
      ],
      [
       106.66037596,
       10.77384174
      ],
      [
       106.66027058,
       10.77379936
      ],
      [
       106.66023612,
       10.7737679
      ],
      [
       106.66019044,
       10.77377493
      ],
      [
       106.66014918,
       10.77375481
      ],
      [
       106.66013541,
       10.77374358
      ],
      [
       106.66014434,
       10.77370511
      ],
      [
       106.66016491,
       10.773705
      ],
      [
       106.66020347,
       10.77365055
      ],
      [
       106.66021719,
       10.77365047
      ],
      [
       106.66022414,
       10.77366852
      ],
      [
       106.66025401,
       10.77369548
      ],
      [
       106.66031575,
       10.77369967
      ],
      [
       106.66035454,
       10.77368816
      ],
      [
       106.66037525,
       10.77371291
      ],
      [
       106.66039816,
       10.77372183
      ],
      [
       106.66040064,
       10.77375798
      ],
      [
       106.66050381,
       10.77381393
      ],
      [
       106.66052667,
       10.77381381
      ],
      [
       106.66054502,
       10.77382501
      ],
      [
       106.66054509,
       10.77383857
      ],
      [
       106.66051341,
       10.7738975
      ],
      [
       106.66050661,
       10.77390658
      ],
      [
       106.66049061,
       10.77390667
      ]
     ]
    ]
   }
  },
  {
   "type": "Feature",
   "properties": {
    "id": "bk_018",
    "area_m2": 98.5,
    "eave_height_m": 3.16,
    "ridge_height_m": 4.17,
    "mid_height_m": 3.48,
    "roof_relief_m": 1.01,
    "roof_elev_m": 80.2,
    "ground_elev_m": 76.72,
    "roof_std_m": 0.41,
    "world_height_m": 3.48,
    "height_minfilter_m": 3.71,
    "estimator_gap_m": 0.23,
    "confidence": "high",
    "caveat": "little visible ground nearby",
    "ground_visible_fraction": 0.195,
    "ground_area_m2": 372.8,
    "veg_fraction_in_roof": 0.097,
    "utm_easting": 681587.26,
    "utm_northing": 1191458.69
   },
   "geometry": {
    "type": "Polygon",
    "coordinates": [
     [
      [
       106.66075783,
       10.77386681
      ],
      [
       106.66075776,
       10.77385325
      ],
      [
       106.66073932,
       10.77382623
      ],
      [
       106.66069815,
       10.77382193
      ],
      [
       106.66069349,
       10.77380613
      ],
      [
       106.66074553,
       10.77370867
      ],
      [
       106.66077746,
       10.77369494
      ],
      [
       106.66078891,
       10.77369939
      ],
      [
       106.66078903,
       10.77371974
      ],
      [
       106.6607573,
       10.77376963
      ],
      [
       106.66075743,
       10.77379449
      ],
      [
       106.66076895,
       10.77381025
      ],
      [
       106.66078266,
       10.77381018
      ],
      [
       106.66079203,
       10.77385081
      ],
      [
       106.66075783,
       10.77386681
      ]
     ]
    ]
   }
  },
  {
   "type": "Feature",
   "properties": {
    "id": "bk_019",
    "area_m2": 788.2,
    "eave_height_m": 18.77,
    "ridge_height_m": 19.76,
    "mid_height_m": 19.15,
    "roof_relief_m": 0.99,
    "roof_elev_m": 95.58,
    "ground_elev_m": 76.43,
    "roof_std_m": 0.47,
    "world_height_m": 19.15,
    "height_minfilter_m": 19.28,
    "estimator_gap_m": 0.13,
    "confidence": "high",
    "caveat": "",
    "ground_visible_fraction": 0.341,
    "ground_area_m2": 1052.2,
    "veg_fraction_in_roof": 0.001,
    "utm_easting": 681504.15,
    "utm_northing": 1191430.64
   },
   "geometry": {
    "type": "Polygon",
    "coordinates": [
     [
      [
       106.65994801,
       10.77375136
      ],
      [
       106.6598265,
       10.77368421
      ],
      [
       106.65982411,
       10.77366614
      ],
      [
       106.6598513,
       10.77362305
      ],
      [
       106.65986019,
       10.77357554
      ],
      [
       106.65989672,
       10.77356857
      ],
      [
       106.65990112,
       10.7735369
      ],
      [
       106.65991707,
       10.77352777
      ],
      [
       106.65992838,
       10.77350511
      ],
      [
       106.6599303,
       10.77343956
      ],
      [
       106.65994396,
       10.77342818
      ],
      [
       106.65993238,
       10.77340112
      ],
      [
       106.65993457,
       10.77338303
      ],
      [
       106.65998032,
       10.77338957
      ],
      [
       106.66001654,
       10.77332609
      ],
      [
       106.66003253,
       10.77332374
      ],
      [
       106.66014946,
       10.77338866
      ],
      [
       106.66015872,
       10.77340895
      ],
      [
       106.66008611,
       10.77350653
      ],
      [
       106.65996173,
       10.77375129
      ],
      [
       106.65994801,
       10.77375136
      ]
     ]
    ]
   }
  },
  {
   "type": "Feature",
   "properties": {
    "id": "bk_020",
    "area_m2": 453.0,
    "eave_height_m": 11.93,
    "ridge_height_m": 12.46,
    "mid_height_m": 12.05,
    "roof_relief_m": 0.53,
    "roof_elev_m": 88.48,
    "ground_elev_m": 76.43,
    "roof_std_m": 0.25,
    "world_height_m": 12.05,
    "height_minfilter_m": 12.17,
    "estimator_gap_m": 0.12,
    "confidence": "high",
    "caveat": "",
    "ground_visible_fraction": 0.298,
    "ground_area_m2": 848.1,
    "veg_fraction_in_roof": 0.008,
    "utm_easting": 681556.87,
    "utm_northing": 1191433.77
   },
   "geometry": {
    "type": "Polygon",
    "coordinates": [
     [
      [
       106.66060831,
       10.77369584
      ],
      [
       106.66054634,
       10.77364871
      ],
      [
       106.66050747,
       10.77364666
      ],
      [
       106.66048907,
       10.77362642
      ],
      [
       106.66045928,
       10.77361302
      ],
      [
       106.66040898,
       10.77361102
      ],
      [
       106.66039964,
       10.77357491
      ],
      [
       106.66036758,
       10.77356378
      ],
      [
       106.66034911,
       10.77352998
      ],
      [
       106.6603147,
       10.77350756
      ],
      [
       106.66028497,
       10.77350546
      ],
      [
       106.66030759,
       10.7734624
      ],
      [
       106.66030513,
       10.77343077
      ],
      [
       106.66031871,
       10.77340584
      ],
      [
       106.66033471,
       10.77340575
      ],
      [
       106.66037826,
       10.77342812
      ],
      [
       106.66038988,
       10.77346196
      ],
      [
       106.66041512,
       10.7734799
      ],
      [
       106.66042884,
       10.77347983
      ],
      [
       106.66043126,
       10.77350468
      ],
      [
       106.66044734,
       10.77352041
      ],
      [
       106.66048617,
       10.77351342
      ],
      [
       106.66052747,
       10.77354259
      ],
      [
       106.66055956,
       10.77355823
      ],
      [
       106.66057784,
       10.77355814
      ],
      [
       106.66059864,
       10.77359871
      ],
      [
       106.66064204,
       10.77359396
      ],
      [
       106.660665,
       10.77361191
      ],
      [
       106.66062885,
       10.77368895
      ],
      [
       106.66060831,
       10.77369584
      ]
     ]
    ]
   }
  },
  {
   "type": "Feature",
   "properties": {
    "id": "bk_021",
    "area_m2": 373.9,
    "eave_height_m": 11.45,
    "ridge_height_m": 12.32,
    "mid_height_m": 11.79,
    "roof_relief_m": 0.88,
    "roof_elev_m": 88.82,
    "ground_elev_m": 77.03,
    "roof_std_m": 0.51,
    "world_height_m": 11.79,
    "height_minfilter_m": 12.01,
    "estimator_gap_m": 0.22,
    "confidence": "high",
    "caveat": "little visible ground nearby",
    "ground_visible_fraction": 0.188,
    "ground_area_m2": 432.9,
    "veg_fraction_in_roof": 0.001,
    "utm_easting": 681360.76,
    "utm_northing": 1191433.15
   },
   "geometry": {
    "type": "Polygon",
    "coordinates": [
     [
      [
       106.65870641,
       10.77367891
      ],
      [
       106.65861693,
       10.77361836
      ],
      [
       106.65858262,
       10.77361402
      ],
      [
       106.65859162,
       10.77358911
      ],
      [
       106.65858247,
       10.7735869
      ],
      [
       106.65856849,
       10.77353951
      ],
      [
       106.65861831,
       10.77345336
      ],
      [
       106.65867101,
       10.77347568
      ],
      [
       106.65869615,
       10.77347555
      ],
      [
       106.658726,
       10.77350025
      ],
      [
       106.65876031,
       10.77350459
      ],
      [
       106.658788,
       10.7735519
      ],
      [
       106.65878806,
       10.7735632
      ],
      [
       106.65876986,
       10.77357912
      ],
      [
       106.65875631,
       10.77360857
      ],
      [
       106.6587565,
       10.77364248
      ],
      [
       106.65873825,
       10.77364935
      ],
      [
       106.65872012,
       10.77367883
      ],
      [
       106.65870641,
       10.77367891
      ]
     ]
    ]
   }
  },
  {
   "type": "Feature",
   "properties": {
    "id": "bk_022",
    "area_m2": 1591.7,
    "eave_height_m": 13.77,
    "ridge_height_m": 16.22,
    "mid_height_m": 14.39,
    "roof_relief_m": 2.45,
    "roof_elev_m": 90.86,
    "ground_elev_m": 76.47,
    "roof_std_m": 1.05,
    "world_height_m": 14.39,
    "height_minfilter_m": 14.49,
    "estimator_gap_m": 0.1,
    "confidence": "high",
    "caveat": "",
    "ground_visible_fraction": 0.458,
    "ground_area_m2": 1687.1,
    "veg_fraction_in_roof": 0.003,
    "utm_easting": 681472.76,
    "utm_northing": 1191412.98
   },
   "geometry": {
    "type": "Polygon",
    "coordinates": [
     [
      [
       106.65975068,
       10.77361455
      ],
      [
       106.65965892,
       10.77355402
      ],
      [
       106.6594526,
       10.77344664
      ],
      [
       106.65946155,
       10.77341043
      ],
      [
       106.65949335,
       10.77337409
      ],
      [
       106.65953173,
       10.77328574
      ],
      [
       106.65963369,
       10.77312247
      ],
      [
       106.6596589,
       10.77313363
      ],
      [
       106.65965901,
       10.77315397
      ],
      [
       106.6596682,
       10.77316296
      ],
      [
       106.65988141,
       10.77327709
      ],
      [
       106.65990659,
       10.77328373
      ],
      [
       106.6599088,
       10.77327016
      ],
      [
       106.65992709,
       10.77327006
      ],
      [
       106.65994087,
       10.77328129
      ],
      [
       106.65997054,
       10.77327435
      ],
      [
       106.65996836,
       10.77329244
      ],
      [
       106.65994783,
       10.77330159
      ],
      [
       106.65994792,
       10.77331742
      ],
      [
       106.65992976,
       10.77334011
      ],
      [
       106.6599186,
       10.7733899
      ],
      [
       106.65990717,
       10.77338996
      ],
      [
       106.65990495,
       10.77340127
      ],
      [
       106.65987296,
       10.7734037
      ],
      [
       106.65985477,
       10.77342188
      ],
      [
       106.65985065,
       10.77350327
      ],
      [
       106.65983011,
       10.77351016
      ],
      [
       106.65981195,
       10.77353286
      ],
      [
       106.6598099,
       10.77357581
      ],
      [
       106.65978717,
       10.77359853
      ],
      [
       106.65977574,
       10.7735986
      ],
      [
       106.65976668,
       10.77361447
      ],
      [
       106.65975068,
       10.77361455
      ]
     ]
    ]
   }
  },
  {
   "type": "Feature",
   "properties": {
    "id": "bk_023",
    "area_m2": 580.1,
    "eave_height_m": 8.08,
    "ridge_height_m": 8.7,
    "mid_height_m": 8.39,
    "roof_relief_m": 0.62,
    "roof_elev_m": 84.98,
    "ground_elev_m": 76.59,
    "roof_std_m": 1.24,
    "world_height_m": 8.39,
    "height_minfilter_m": 8.5,
    "estimator_gap_m": 0.11,
    "confidence": "high",
    "caveat": "little visible ground nearby",
    "ground_visible_fraction": 0.193,
    "ground_area_m2": 542.3,
    "veg_fraction_in_roof": 0.008,
    "utm_easting": 681591.95,
    "utm_northing": 1191421.55
   },
   "geometry": {
    "type": "Polygon",
    "coordinates": [
     [
      [
       106.66088442,
       10.77360848
      ],
      [
       106.66086148,
       10.77359278
      ],
      [
       106.66082723,
       10.77359974
      ],
      [
       106.6607811,
       10.77352541
      ],
      [
       106.66073991,
       10.77351659
      ],
      [
       106.66071448,
       10.77346474
      ],
      [
       106.66066631,
       10.77343335
      ],
      [
       106.660632,
       10.77342902
      ],
      [
       106.66062036,
       10.77339066
      ],
      [
       106.66066558,
       10.77330001
      ],
      [
       106.66068387,
       10.77330217
      ],
      [
       106.66079624,
       10.77336711
      ],
      [
       106.66084658,
       10.77337815
      ],
      [
       106.66088097,
       10.77339604
      ],
      [
       106.66088793,
       10.77341409
      ],
      [
       106.66091077,
       10.7734117
      ],
      [
       106.66094056,
       10.7734251
      ],
      [
       106.66094077,
       10.77346353
      ],
      [
       106.6609591,
       10.77347021
      ],
      [
       106.66095916,
       10.77348151
      ],
      [
       106.66092714,
       10.77347942
      ],
      [
       106.66091809,
       10.77349529
      ],
      [
       106.66089981,
       10.77349765
      ],
      [
       106.66086771,
       10.77347974
      ],
      [
       106.66086307,
       10.7734662
      ],
      [
       106.66085165,
       10.77346852
      ],
      [
       106.66086093,
       10.77349334
      ],
      [
       106.6608999,
       10.77351347
      ],
      [
       106.66089328,
       10.77355645
      ],
      [
       106.66091399,
       10.7735812
      ],
      [
       106.66091405,
       10.7735925
      ],
      [
       106.66088442,
       10.77360848
      ]
     ]
    ]
   }
  },
  {
   "type": "Feature",
   "properties": {
    "id": "bk_024",
    "area_m2": 98.2,
    "eave_height_m": 3.34,
    "ridge_height_m": 4.03,
    "mid_height_m": 3.55,
    "roof_relief_m": 0.7,
    "roof_elev_m": 80.6,
    "ground_elev_m": 77.04,
    "roof_std_m": 0.29,
    "world_height_m": 3.55,
    "height_minfilter_m": 4.05,
    "estimator_gap_m": 0.5,
    "confidence": "high",
    "caveat": "little visible ground nearby",
    "ground_visible_fraction": 0.098,
    "ground_area_m2": 174.9,
    "veg_fraction_in_roof": 0.173,
    "utm_easting": 681624.89,
    "utm_northing": 1191423.36
   },
   "geometry": {
    "type": "Polygon",
    "coordinates": [
     [
      [
       106.6610851,
       10.77352152
      ],
      [
       106.66108046,
       10.77351024
      ],
      [
       106.66106675,
       10.77351031
      ],
      [
       106.66106197,
       10.77347192
      ],
      [
       106.66102973,
       10.77342915
      ],
      [
       106.66102966,
       10.77341559
      ],
      [
       106.66105709,
       10.77341544
      ],
      [
       106.661073,
       10.77339953
      ],
      [
       106.66109129,
       10.77339944
      ],
      [
       106.66110049,
       10.77341069
      ],
      [
       106.66109837,
       10.77344008
      ],
      [
       106.66112347,
       10.77343316
      ],
      [
       106.66113266,
       10.77344216
      ],
      [
       106.66114891,
       10.77348727
      ],
      [
       106.66114899,
       10.77350083
      ],
      [
       106.6611307,
       10.77350093
      ],
      [
       106.66109881,
       10.77352144
      ],
      [
       106.6610851,
       10.77352152
      ]
     ]
    ]
   }
  },
  {
   "type": "Feature",
   "properties": {
    "id": "bk_025",
    "area_m2": 173.0,
    "eave_height_m": 3.43,
    "ridge_height_m": 4.21,
    "mid_height_m": 3.72,
    "roof_relief_m": 0.79,
    "roof_elev_m": 80.47,
    "ground_elev_m": 76.75,
    "roof_std_m": 0.35,
    "world_height_m": 3.72,
    "height_minfilter_m": 3.84,
    "estimator_gap_m": 0.12,
    "confidence": "high",
    "caveat": "little visible ground nearby",
    "ground_visible_fraction": 0.072,
    "ground_area_m2": 167.8,
    "veg_fraction_in_roof": 0.078,
    "utm_easting": 681608.82,
    "utm_northing": 1191400.7
   },
   "geometry": {
    "type": "Polygon",
    "coordinates": [
     [
      [
       106.66100428,
       10.77337278
      ],
      [
       106.66099055,
       10.77337059
      ],
      [
       106.66098582,
       10.77334124
      ],
      [
       106.66093759,
       10.77330081
      ],
      [
       106.66091695,
       10.77328736
      ],
      [
       106.66088951,
       10.77328525
      ],
      [
       106.66087111,
       10.77326501
      ],
      [
       106.66087103,
       10.77325145
      ],
      [
       106.66089833,
       10.77322644
      ],
      [
       106.66090041,
       10.77319026
      ],
      [
       106.66088879,
       10.77315416
      ],
      [
       106.66084983,
       10.77313629
      ],
      [
       106.66084977,
       10.77312499
      ],
      [
       106.66087033,
       10.77312262
      ],
      [
       106.66090704,
       10.77314729
      ],
      [
       106.66091401,
       10.77316759
      ],
      [
       106.66095535,
       10.77320353
      ],
      [
       106.66096234,
       10.77322836
      ],
      [
       106.66099224,
       10.7732621
      ],
      [
       106.66100403,
       10.77332758
      ],
      [
       106.66101778,
       10.77333428
      ],
      [
       106.66102013,
       10.77334557
      ],
      [
       106.66104984,
       10.77334541
      ],
      [
       106.66104991,
       10.77335671
      ],
      [
       106.66102019,
       10.77335687
      ],
      [
       106.66101571,
       10.77337272
      ],
      [
       106.66100428,
       10.77337278
      ]
     ]
    ]
   }
  },
  {
   "type": "Feature",
   "properties": {
    "id": "bk_026",
    "area_m2": 1018.4,
    "eave_height_m": 23.68,
    "ridge_height_m": 26.62,
    "mid_height_m": 24.0,
    "roof_relief_m": 2.94,
    "roof_elev_m": 100.75,
    "ground_elev_m": 76.75,
    "roof_std_m": 0.8,
    "world_height_m": 24.0,
    "height_minfilter_m": 24.06,
    "estimator_gap_m": 0.06,
    "confidence": "high",
    "caveat": "",
    "ground_visible_fraction": 0.324,
    "ground_area_m2": 1248.1,
    "veg_fraction_in_roof": 0.0,
    "utm_easting": 681367.42,
    "utm_northing": 1191387.5
   },
   "geometry": {
    "type": "Polygon",
    "coordinates": [
     [
      [
       106.65899496,
       10.77335868
      ],
      [
       106.65883447,
       10.77327139
      ],
      [
       106.65880474,
       10.77326929
      ],
      [
       106.6587131,
       10.77323136
      ],
      [
       106.65870606,
       10.7731975
      ],
      [
       106.65845847,
       10.77306547
      ],
      [
       106.65845158,
       10.77306099
      ],
      [
       106.65845144,
       10.77303387
      ],
      [
       106.65842634,
       10.77304304
      ],
      [
       106.65840338,
       10.77302508
      ],
      [
       106.65838967,
       10.77302516
      ],
      [
       106.65838729,
       10.77300709
      ],
      [
       106.65841672,
       10.77295495
      ],
      [
       106.65843042,
       10.77295262
      ],
      [
       106.65843047,
       10.77296166
      ],
      [
       106.65844191,
       10.77296385
      ],
      [
       106.65845098,
       10.77295025
      ],
      [
       106.65846469,
       10.77295017
      ],
      [
       106.65847617,
       10.77295915
      ],
      [
       106.658465,
       10.77300667
      ],
      [
       106.65848095,
       10.77299755
      ],
      [
       106.65849216,
       10.77295681
      ],
      [
       106.65851733,
       10.77296119
      ],
      [
       106.65871681,
       10.77307313
      ],
      [
       106.65883593,
       10.77311996
      ],
      [
       106.65885666,
       10.77314923
      ],
      [
       106.6590584,
       10.77325663
      ],
      [
       106.65906076,
       10.77327018
      ],
      [
       106.65901776,
       10.77334952
      ],
      [
       106.65901096,
       10.7733586
      ],
      [
       106.65899496,
       10.77335868
      ]
     ]
    ]
   }
  },
  {
   "type": "Feature",
   "properties": {
    "id": "bk_027",
    "area_m2": 626.6,
    "eave_height_m": 9.49,
    "ridge_height_m": 10.82,
    "mid_height_m": 9.86,
    "roof_relief_m": 1.33,
    "roof_elev_m": 86.3,
    "ground_elev_m": 76.44,
    "roof_std_m": 0.63,
    "world_height_m": 9.86,
    "height_minfilter_m": 10.02,
    "estimator_gap_m": 0.16,
    "confidence": "high",
    "caveat": "",
    "ground_visible_fraction": 0.509,
    "ground_area_m2": 1386.1,
    "veg_fraction_in_roof": 0.007,
    "utm_easting": 681524.54,
    "utm_northing": 1191383.48
   },
   "geometry": {
    "type": "Polygon",
    "coordinates": [
     [
      [
       106.66022184,
       10.77324814
      ],
      [
       106.66017821,
       10.77321222
      ],
      [
       106.6600934,
       10.77316973
      ],
      [
       106.66007056,
       10.77317211
      ],
      [
       106.66007049,
       10.77315855
      ],
      [
       106.6600521,
       10.77314057
      ],
      [
       106.66000415,
       10.77314986
      ],
      [
       106.66000396,
       10.77311596
      ],
      [
       106.66004937,
       10.77305922
      ],
      [
       106.66008999,
       10.77296407
      ],
      [
       106.66012887,
       10.77296838
      ],
      [
       106.6601954,
       10.77301097
      ],
      [
       106.66023435,
       10.77302884
      ],
      [
       106.66025264,
       10.77302874
      ],
      [
       106.66026417,
       10.77304676
      ],
      [
       106.66033524,
       10.77308481
      ],
      [
       106.6603353,
       10.77309611
      ],
      [
       106.66029442,
       10.77314379
      ],
      [
       106.66025835,
       10.77323665
      ],
      [
       106.66024698,
       10.77324801
      ],
      [
       106.66022184,
       10.77324814
      ]
     ]
    ]
   }
  },
  {
   "type": "Feature",
   "properties": {
    "id": "bk_028",
    "area_m2": 358.5,
    "eave_height_m": 3.03,
    "ridge_height_m": 4.48,
    "mid_height_m": 3.23,
    "roof_relief_m": 1.45,
    "roof_elev_m": 79.72,
    "ground_elev_m": 76.49,
    "roof_std_m": 0.57,
    "world_height_m": 3.23,
    "height_minfilter_m": 3.41,
    "estimator_gap_m": 0.18,
    "confidence": "high",
    "caveat": "little visible ground nearby",
    "ground_visible_fraction": 0.177,
    "ground_area_m2": 456.9,
    "veg_fraction_in_roof": 0.048,
    "utm_easting": 681581.72,
    "utm_northing": 1191375.59
   },
   "geometry": {
    "type": "Polygon",
    "coordinates": [
     [
      [
       106.66069664,
       10.77312807
      ],
      [
       106.66066909,
       10.77310788
      ],
      [
       106.66061653,
       10.77311042
      ],
      [
       106.6606187,
       10.77308781
      ],
      [
       106.66060724,
       10.77308335
      ],
      [
       106.66060717,
       10.77306979
      ],
      [
       106.66056133,
       10.77304743
      ],
      [
       106.66056123,
       10.77302935
      ],
      [
       106.66054283,
       10.77300911
      ],
      [
       106.66055184,
       10.7729842
      ],
      [
       106.66056554,
       10.77298187
      ],
      [
       106.66060221,
       10.77299975
      ],
      [
       106.66062061,
       10.77301999
      ],
      [
       106.66067554,
       10.77303326
      ],
      [
       106.66074205,
       10.77307359
      ],
      [
       106.66075576,
       10.77307125
      ],
      [
       106.66075333,
       10.7730464
      ],
      [
       106.66073263,
       10.77302165
      ],
      [
       106.66073255,
       10.77300809
      ],
      [
       106.66069368,
       10.77300604
      ],
      [
       106.66064542,
       10.77295884
      ],
      [
       106.66062002,
       10.77291151
      ],
      [
       106.66061989,
       10.77288891
      ],
      [
       106.66064725,
       10.7728752
      ],
      [
       106.66066782,
       10.77287509
      ],
      [
       106.66067249,
       10.77289315
      ],
      [
       106.66069771,
       10.77290657
      ],
      [
       106.66069338,
       10.7729518
      ],
      [
       106.66073692,
       10.77297191
      ],
      [
       106.66073254,
       10.77300583
      ],
      [
       106.66075533,
       10.77299441
      ],
      [
       106.66076676,
       10.77299435
      ],
      [
       106.6607714,
       10.77300562
      ],
      [
       106.66079424,
       10.77300324
      ],
      [
       106.66079659,
       10.77301453
      ],
      [
       106.66081955,
       10.77303249
      ],
      [
       106.66081966,
       10.77305283
      ],
      [
       106.66083352,
       10.77307988
      ],
      [
       106.66083361,
       10.7730957
      ],
      [
       106.66080627,
       10.77311166
      ],
      [
       106.66079949,
       10.77312752
      ],
      [
       106.66076285,
       10.77311416
      ],
      [
       106.66071257,
       10.77311669
      ],
      [
       106.66070806,
       10.77312801
      ],
      [
       106.66069664,
       10.77312807
      ]
     ]
    ]
   }
  },
  {
   "type": "Feature",
   "properties": {
    "id": "bk_029",
    "area_m2": 488.2,
    "eave_height_m": 3.7,
    "ridge_height_m": 5.71,
    "mid_height_m": 4.46,
    "roof_relief_m": 2.01,
    "roof_elev_m": 81.5,
    "ground_elev_m": 77.04,
    "roof_std_m": 0.83,
    "world_height_m": 4.46,
    "height_minfilter_m": 4.6,
    "estimator_gap_m": 0.14,
    "confidence": "high",
    "caveat": "little visible ground nearby",
    "ground_visible_fraction": 0.104,
    "ground_area_m2": 306.6,
    "veg_fraction_in_roof": 0.008,
    "utm_easting": 681334.36,
    "utm_northing": 1191338.3
   },
   "geometry": {
    "type": "Polygon",
    "coordinates": [
     [
      [
       106.65848053,
       10.77292071
      ],
      [
       106.65847359,
       10.77290492
      ],
      [
       106.65848486,
       10.77287548
      ],
      [
       106.6584822,
       10.77280769
      ],
      [
       106.65846158,
       10.77279876
      ],
      [
       106.65844316,
       10.772774
      ],
      [
       106.65842025,
       10.77276508
      ],
      [
       106.65839492,
       10.77273131
      ],
      [
       106.65837429,
       10.77272012
      ],
      [
       106.65834227,
       10.77271803
      ],
      [
       106.65833301,
       10.77269548
      ],
      [
       106.65825961,
       10.77265067
      ],
      [
       106.65822957,
       10.77258981
      ],
      [
       106.65827067,
       10.77258281
      ],
      [
       106.6583555,
       10.77262982
      ],
      [
       106.65838065,
       10.77262968
      ],
      [
       106.65839192,
       10.77260024
      ],
      [
       106.65840563,
       10.77260016
      ],
      [
       106.65856841,
       10.7726897
      ],
      [
       106.65856622,
       10.77270553
      ],
      [
       106.65854352,
       10.77273504
      ],
      [
       106.65855753,
       10.7727892
      ],
      [
       106.65851671,
       10.77284819
      ],
      [
       106.65849196,
       10.77292064
      ],
      [
       106.65848053,
       10.77292071
      ]
     ]
    ]
   }
  },
  {
   "type": "Feature",
   "properties": {
    "id": "bk_030",
    "area_m2": 402.7,
    "eave_height_m": 11.58,
    "ridge_height_m": 12.06,
    "mid_height_m": 11.73,
    "roof_relief_m": 0.48,
    "roof_elev_m": 88.2,
    "ground_elev_m": 76.47,
    "roof_std_m": 0.22,
    "world_height_m": 11.73,
    "height_minfilter_m": 11.88,
    "estimator_gap_m": 0.15,
    "confidence": "high",
    "caveat": "",
    "ground_visible_fraction": 0.359,
    "ground_area_m2": 1057.9,
    "veg_fraction_in_roof": 0.001,
    "utm_easting": 681524.18,
    "utm_northing": 1191339.56
   },
   "geometry": {
    "type": "Polygon",
    "coordinates": [
     [
      [
       106.66033621,
       10.77284523
      ],
      [
       106.65994416,
       10.77263035
      ],
      [
       106.65994407,
       10.77261453
      ],
      [
       106.6599667,
       10.77257373
      ],
      [
       106.65999644,
       10.77257809
      ],
      [
       106.66016611,
       10.77267211
      ],
      [
       106.66022103,
       10.77268311
      ],
      [
       106.66022338,
       10.7726944
      ],
      [
       106.66024395,
       10.77269429
      ],
      [
       106.66024404,
       10.77271011
      ],
      [
       106.66026011,
       10.77272358
      ],
      [
       106.66038616,
       10.77278393
      ],
      [
       106.66038634,
       10.77281557
      ],
      [
       106.66036352,
       10.77282248
      ],
      [
       106.66034764,
       10.77284516
      ],
      [
       106.66033621,
       10.77284523
      ]
     ]
    ]
   }
  },
  {
   "type": "Feature",
   "properties": {
    "id": "bk_031",
    "area_m2": 100.9,
    "eave_height_m": 23.01,
    "ridge_height_m": 23.72,
    "mid_height_m": 23.28,
    "roof_relief_m": 0.72,
    "roof_elev_m": 99.75,
    "ground_elev_m": 76.47,
    "roof_std_m": 0.58,
    "world_height_m": 23.28,
    "height_minfilter_m": 23.67,
    "estimator_gap_m": 0.39,
    "confidence": "high",
    "caveat": "",
    "ground_visible_fraction": 0.227,
    "ground_area_m2": 414.6,
    "veg_fraction_in_roof": 0.617,
    "utm_easting": 681572.89,
    "utm_northing": 1191337.97
   },
   "geometry": {
    "type": "Polygon",
    "coordinates": [
     [
      [
       106.66059634,
       10.77276247
      ],
      [
       106.66058931,
       10.77273086
      ],
      [
       106.66057097,
       10.77272192
      ],
      [
       106.66056845,
       10.77267899
      ],
      [
       106.660557,
       10.77267453
      ],
      [
       106.66055691,
       10.77265871
      ],
      [
       106.66060714,
       10.77264714
      ],
      [
       106.66063003,
       10.7726538
      ],
      [
       106.66063223,
       10.77263797
      ],
      [
       106.66065738,
       10.77263783
      ],
      [
       106.66065746,
       10.77265365
      ],
      [
       106.66065062,
       10.77265595
      ],
      [
       106.66065535,
       10.77268531
      ],
      [
       106.66063019,
       10.77268318
      ],
      [
       106.66062337,
       10.77269
      ],
      [
       106.66062806,
       10.77271031
      ],
      [
       106.66065547,
       10.77270791
      ],
      [
       106.66064426,
       10.77274639
      ],
      [
       106.66062827,
       10.77274873
      ],
      [
       106.66062604,
       10.77276005
      ],
      [
       106.66059634,
       10.77276247
      ]
     ]
    ]
   }
  },
  {
   "type": "Feature",
   "properties": {
    "id": "bk_032",
    "area_m2": 97.8,
    "eave_height_m": 3.79,
    "ridge_height_m": 4.59,
    "mid_height_m": 4.06,
    "roof_relief_m": 0.8,
    "roof_elev_m": 80.5,
    "ground_elev_m": 76.44,
    "roof_std_m": 0.38,
    "world_height_m": 4.06,
    "height_minfilter_m": 4.27,
    "estimator_gap_m": 0.21,
    "confidence": "high",
    "caveat": "little visible ground nearby",
    "ground_visible_fraction": 0.168,
    "ground_area_m2": 326.1,
    "veg_fraction_in_roof": 0.048,
    "utm_easting": 681558.07,
    "utm_northing": 1191334.95
   },
   "geometry": {
    "type": "Polygon",
    "coordinates": [
     [
      [
       106.66050253,
       10.77274489
      ],
      [
       106.66049104,
       10.77273365
      ],
      [
       106.66047732,
       10.77273372
      ],
      [
       106.66047717,
       10.7727066
      ],
      [
       106.66046559,
       10.77267954
      ],
      [
       106.66045181,
       10.77266605
      ],
      [
       106.66042204,
       10.77265717
      ],
      [
       106.66041961,
       10.77263006
      ],
      [
       106.66043102,
       10.77262774
      ],
      [
       106.66043094,
       10.77261192
      ],
      [
       106.66043778,
       10.77260963
      ],
      [
       106.66043312,
       10.77259383
      ],
      [
       106.66041711,
       10.77259166
      ],
      [
       106.66042388,
       10.7725758
      ],
      [
       106.66046511,
       10.7725914
      ],
      [
       106.66048822,
       10.77263648
      ],
      [
       106.66049073,
       10.77267715
      ],
      [
       106.66054807,
       10.772713
      ],
      [
       106.66054587,
       10.77272883
      ],
      [
       106.66053215,
       10.77272891
      ],
      [
       106.66052537,
       10.77274251
      ],
      [
       106.66050253,
       10.77274489
      ]
     ]
    ]
   }
  },
  {
   "type": "Feature",
   "properties": {
    "id": "bk_033",
    "area_m2": 3041.8,
    "eave_height_m": 4.18,
    "ridge_height_m": 9.97,
    "mid_height_m": 4.9,
    "roof_relief_m": 5.79,
    "roof_elev_m": 81.44,
    "ground_elev_m": 76.54,
    "roof_std_m": 2.25,
    "world_height_m": 4.9,
    "height_minfilter_m": 4.83,
    "estimator_gap_m": 0.06,
    "confidence": "medium",
    "caveat": "multi-level roof, should be split",
    "ground_visible_fraction": 0.212,
    "ground_area_m2": 1640.2,
    "veg_fraction_in_roof": 0.06,
    "utm_easting": 681464.1,
    "utm_northing": 1191262.66
   },
   "geometry": {
    "type": "Polygon",
    "coordinates": [
     [
      [
       106.65964456,
       10.77218445
      ],
      [
       106.65964218,
       10.77216864
      ],
      [
       106.65966046,
       10.77216628
      ],
      [
       106.65966053,
       10.77217984
      ],
      [
       106.65964456,
       10.77218445
      ]
     ]
    ]
   }
  },
  {
   "type": "Feature",
   "properties": {
    "id": "bk_034",
    "area_m2": 172.8,
    "eave_height_m": 13.55,
    "ridge_height_m": 17.94,
    "mid_height_m": 14.63,
    "roof_relief_m": 4.39,
    "roof_elev_m": 91.33,
    "ground_elev_m": 76.7,
    "roof_std_m": 1.85,
    "world_height_m": 14.63,
    "height_minfilter_m": 15.02,
    "estimator_gap_m": 0.39,
    "confidence": "medium",
    "caveat": "multi-level roof, should be split",
    "ground_visible_fraction": 0.223,
    "ground_area_m2": 470.6,
    "veg_fraction_in_roof": 0.012,
    "utm_easting": 681571.97,
    "utm_northing": 1191284.27
   },
   "geometry": {
    "type": "Polygon",
    "coordinates": [
     [
      [
       106.66053206,
       10.77229496
      ],
      [
       106.66052971,
       10.77228367
      ],
      [
       106.66049529,
       10.772259
      ],
      [
       106.66049523,
       10.77224769
      ],
      [
       106.66054071,
       10.77220451
      ],
      [
       106.66055671,
       10.77220442
      ],
      [
       106.66055908,
       10.77222023
      ],
      [
       106.66058662,
       10.77224042
      ],
      [
       106.66058885,
       10.77222911
      ],
      [
       106.66057965,
       10.77222012
      ],
      [
       106.66058409,
       10.77219524
      ],
      [
       106.66057721,
       10.77219075
      ],
      [
       106.66058158,
       10.77215457
      ],
      [
       106.66062261,
       10.772134
      ],
      [
       106.66064779,
       10.77214065
      ],
      [
       106.66064767,
       10.77211805
      ],
      [
       106.66067053,
       10.77211793
      ],
      [
       106.66070061,
       10.77218557
      ],
      [
       106.66066394,
       10.77216769
      ],
      [
       106.66067557,
       10.77220379
      ],
      [
       106.66064144,
       10.77223335
      ],
      [
       106.66061401,
       10.7722335
      ],
      [
       106.66058449,
       10.77226756
      ],
      [
       106.66054578,
       10.77229489
      ],
      [
       106.66053206,
       10.77229496
      ]
     ]
    ]
   }
  },
  {
   "type": "Feature",
   "properties": {
    "id": "bk_035",
    "area_m2": 145.5,
    "eave_height_m": 12.45,
    "ridge_height_m": 14.39,
    "mid_height_m": 12.95,
    "roof_relief_m": 1.94,
    "roof_elev_m": 89.69,
    "ground_elev_m": 76.74,
    "roof_std_m": 0.7,
    "world_height_m": 12.95,
    "height_minfilter_m": 13.34,
    "estimator_gap_m": 0.39,
    "confidence": "high",
    "caveat": "",
    "ground_visible_fraction": 0.273,
    "ground_area_m2": 515.1,
    "veg_fraction_in_roof": 0.005,
    "utm_easting": 681547.95,
    "utm_northing": 1191276.17
   },
   "geometry": {
    "type": "Polygon",
    "coordinates": [
     [
      [
       106.66038982,
       10.7722008
      ],
      [
       106.66034847,
       10.7721626
      ],
      [
       106.66033471,
       10.77215363
      ],
      [
       106.66030499,
       10.77215379
      ],
      [
       106.66029348,
       10.77213803
      ],
      [
       106.66029339,
       10.77212221
      ],
      [
       106.66031848,
       10.77211303
      ],
      [
       106.66035483,
       10.77207216
      ],
      [
       106.66041895,
       10.77209215
      ],
      [
       106.66045574,
       10.77213264
      ],
      [
       106.66043765,
       10.7721689
      ],
      [
       106.66040583,
       10.77220071
      ],
      [
       106.66038982,
       10.7722008
      ]
     ]
    ]
   }
  },
  {
   "type": "Feature",
   "properties": {
    "id": "bk_036",
    "area_m2": 846.1,
    "eave_height_m": 15.27,
    "ridge_height_m": 15.97,
    "mid_height_m": 15.55,
    "roof_relief_m": 0.71,
    "roof_elev_m": 92.25,
    "ground_elev_m": 76.7,
    "roof_std_m": 0.36,
    "world_height_m": 15.55,
    "height_minfilter_m": 15.58,
    "estimator_gap_m": 0.03,
    "confidence": "high",
    "caveat": "",
    "ground_visible_fraction": 0.251,
    "ground_area_m2": 886.9,
    "veg_fraction_in_roof": 0.0,
    "utm_easting": 681408.08,
    "utm_northing": 1191246.65
   },
   "geometry": {
    "type": "Polygon",
    "coordinates": [
     [
      [
       106.6589793,
       10.77216993
      ],
      [
       106.65893345,
       10.77214531
      ],
      [
       106.65893329,
       10.77211593
      ],
      [
       106.65891491,
       10.77209795
      ],
      [
       106.65891483,
       10.77208439
      ],
      [
       106.65903484,
       10.77187581
      ],
      [
       106.65903471,
       10.77185321
      ],
      [
       106.65905746,
       10.77183275
      ],
      [
       106.65919328,
       10.77159018
      ],
      [
       106.65920926,
       10.77158558
      ],
      [
       106.65929408,
       10.77163033
      ],
      [
       106.65929415,
       10.77164389
      ],
      [
       106.65921717,
       10.77177765
      ],
      [
       106.65920143,
       10.7718252
      ],
      [
       106.6591923,
       10.7718275
      ],
      [
       106.65915603,
       10.7718842
      ],
      [
       106.65902477,
       10.77212448
      ],
      [
       106.65899985,
       10.7721653
      ],
      [
       106.6589793,
       10.77216993
      ]
     ]
    ]
   }
  },
  {
   "type": "Feature",
   "properties": {
    "id": "bk_037",
    "area_m2": 266.2,
    "eave_height_m": 4.61,
    "ridge_height_m": 8.12,
    "mid_height_m": 6.35,
    "roof_relief_m": 3.52,
    "roof_elev_m": 83.11,
    "ground_elev_m": 76.76,
    "roof_std_m": 1.54,
    "world_height_m": 6.35,
    "height_minfilter_m": 6.46,
    "estimator_gap_m": 0.11,
    "confidence": "medium",
    "caveat": "multi-level roof, should be split",
    "ground_visible_fraction": 0.226,
    "ground_area_m2": 575.5,
    "veg_fraction_in_roof": 0.027,
    "utm_easting": 681544.56,
    "utm_northing": 1191255.57
   },
   "geometry": {
    "type": "Polygon",
    "coordinates": [
     [
      [
       106.66045039,
       10.77199028
      ],
      [
       106.66044805,
       10.77198125
      ],
      [
       106.66042974,
       10.77197683
      ],
      [
       106.66042967,
       10.77196327
      ],
      [
       106.66046167,
       10.7719631
      ],
      [
       106.66046182,
       10.77199022
      ],
      [
       106.66045039,
       10.77199028
      ]
     ]
    ]
   }
  },
  {
   "type": "Feature",
   "properties": {
    "id": "bk_038",
    "area_m2": 96.5,
    "eave_height_m": 16.41,
    "ridge_height_m": 16.74,
    "mid_height_m": 16.54,
    "roof_relief_m": 0.32,
    "roof_elev_m": 93.43,
    "ground_elev_m": 76.89,
    "roof_std_m": 0.17,
    "world_height_m": 16.54,
    "height_minfilter_m": 16.89,
    "estimator_gap_m": 0.35,
    "confidence": "high",
    "caveat": "",
    "ground_visible_fraction": 0.277,
    "ground_area_m2": 478.1,
    "veg_fraction_in_roof": 0.001,
    "utm_easting": 681547.54,
    "utm_northing": 1191263.18
   },
   "geometry": {
    "type": "Polygon",
    "coordinates": [
     [
      [
       106.66039595,
       10.77206741
      ],
      [
       106.66032034,
       10.77203392
      ],
      [
       106.66032462,
       10.77198191
      ],
      [
       106.66034511,
       10.77196598
      ],
      [
       106.66043446,
       10.77200392
      ],
      [
       106.66041194,
       10.77206507
      ],
      [
       106.66039595,
       10.77206741
      ]
     ]
    ]
   }
  },
  {
   "type": "Feature",
   "properties": {
    "id": "bk_039",
    "area_m2": 2784.8,
    "eave_height_m": 4.35,
    "ridge_height_m": 10.8,
    "mid_height_m": 5.03,
    "roof_relief_m": 6.45,
    "roof_elev_m": 81.84,
    "ground_elev_m": 76.8,
    "roof_std_m": 2.46,
    "world_height_m": 5.03,
    "height_minfilter_m": 5.1,
    "estimator_gap_m": 0.06,
    "confidence": "low",
    "caveat": "little visible ground nearby; multi-level roof, should be split",
    "ground_visible_fraction": 0.05,
    "ground_area_m2": 286.2,
    "veg_fraction_in_roof": 0.01,
    "utm_easting": 681504.38,
    "utm_northing": 1191215.74
   },
   "geometry": {
    "type": "Polygon",
    "coordinates": [
     [
      [
       106.66028082,
       10.77149621
      ],
      [
       106.66025099,
       10.77147603
      ],
      [
       106.66024861,
       10.77145796
      ],
      [
       106.66028967,
       10.77144418
      ],
      [
       106.66031264,
       10.7714644
      ],
      [
       106.66031271,
       10.7714757
      ],
      [
       106.66029225,
       10.77149615
      ],
      [
       106.66028082,
       10.77149621
      ]
     ]
    ]
   }
  },
  {
   "type": "Feature",
   "properties": {
    "id": "bk_040",
    "area_m2": 96.6,
    "eave_height_m": 4.19,
    "ridge_height_m": 5.15,
    "mid_height_m": 4.43,
    "roof_relief_m": 0.95,
    "roof_elev_m": 81.55,
    "ground_elev_m": 77.12,
    "roof_std_m": 0.37,
    "world_height_m": 4.43,
    "height_minfilter_m": 4.61,
    "estimator_gap_m": 0.17,
    "confidence": "high",
    "caveat": "little visible ground nearby",
    "ground_visible_fraction": 0.166,
    "ground_area_m2": 296.4,
    "veg_fraction_in_roof": 0.039,
    "utm_easting": 681367.77,
    "utm_northing": 1191246.82
   },
   "geometry": {
    "type": "Polygon",
    "coordinates": [
     [
      [
       106.6587175,
       10.77194757
      ],
      [
       106.65868079,
       10.77192291
      ],
      [
       106.65868072,
       10.77190935
      ],
      [
       106.65870568,
       10.77187531
      ],
      [
       106.65870536,
       10.77181655
      ],
      [
       106.65873279,
       10.7718164
      ],
      [
       106.65878087,
       10.77183197
      ],
      [
       106.65878326,
       10.77185004
      ],
      [
       106.65873575,
       10.7719407
      ],
      [
       106.6587175,
       10.77194757
      ]
     ]
    ]
   }
  }
 ]
}